address,fid,building_name,x,y
"(100 on map 1550 Brescia AV, Alumni",98,Alumni House,891560.93700000003,501444.27600000001
1000 Memorial DR,28,Ferre Graduate School,894184.72699999996,504997.91200000001
"1101 Stanford DR, Commons",48,Mahoney Pearson Commons,895121.18,504205.408
"1101 Stanford DR, Long",131,"Mahoney Residential College, Long Wing",895221.08200000005,503966.17599999998
"1101 Stanford DR, Short",129,"Mahoney Residential College, Short Wing",895055.79700000002,504146.53700000001
"1101 Stanford DR, Side",47,Mahoney Side Wing,895051.522,504006.97100000002
1111 Memorial DR,18,Memorial Classroom,894105.66599999997,505505.27299999999
1150 Stanford DR,133,Canterbury School,894933.25600000005,503710.15
1203 William E Walsh AV,58,Building #41 - Railey,894141.21200000006,503428.23700000002
1204 Theo Dickinson DR,61,Building #37 - Rhodes House,893997.68799999997,503562.033
"1211 Theo Dickinson DR, Central",67,Eaton Residential College,893671.82799999998,503718.77100000001
"1212 Theo Dickinson DR, West",67,Eaton Residential College,893590.83799999999,503671.04700000002
"1213 Theo Dickinson DR, East",67,Eaton Residential College,893788.87199999997,503761.54599999997
1213 William E Walsh AV,59,Building #42 - Smith,894010.11800000002,503323.35100000002
1216 Theo Dickinson DR,62,Building #36 - Foster,893730.56900000002,503420.55200000003
1217 Theo Dickinson DR,68,Building #49 - School of Architecture,893551.11,503595.68699999998
1221 William E Walsh AV,60,Building #43 - Allen,893899.23800000001,503195.21100000001
"1223 Theo Dickinson DR, Annex",66,"School of Architecture, Annex",893596.68799999997,503449.32699999999
"1223 Theo Dickinson DR, Building 48",69,Building #48 - School of Architecture,893474.83100000001,503511.23499999999
"1224 Theo Dickinson DR, Main",66,"School of Architecture, Main",893135.81400000001,504982.44300000003
1228 Theo Dickinson DR,63,Building #35 - LaGorce,893509.95700000005,503319.49900000001
"1231 Theo Dickinson DR, Commons",72,Hecht Residential College - Commons,893156.39199999999,503434.00900000002
"1231 Theo Dickinson DR, McDonald",70,Hecht Residential College - McDonald Tower,893261.76699999999,503552.82699999999
"1231 Theo Dickinson DR, Pentland",71,Hecht Residential College - Pentland Tower,893300.82700000005,503382.65600000002
1238 Theo Dickinson DR,64,Building #34 - Pentland,893333.80900000001,503125.55
"1239 Theo Dickinson DR, Commons",76,Stanford Residential College - Commons,892865.95600000001,503580.26199999999
"1239 Theo Dickinson DR, Dinning",75,Stanford/Hecht Dinning,892755.73499999999,503357.43699999998
"1239 Theo Dickinson DR, Rosborough",73,Stanford Residential College - Rosborough Tower,892981.07499999995,503526.10499999998
"1239 Theo Dickinson DR, Utility",77,Utility Plant # 2,892845.15300000005,503281.21
"1240 Theo Dickinson DR, Walsh",74,Stanford Residential College - Walsh Tower,892974.25199999998,503706.15500000003
1241 Theo Dickinson DR,81,Smathers Wellness Center,892858.31700000004,503002.52299999999
1244 Stanford DR,45,Mahoney Pearson Dinning Hall,895022.70700000005,504471.212
1245 Dauer DR,65,Bank United Center - BUC,893424.071,502854.73300000001
"1251 Memorial DR, Annex",9,McArthur Engineering Annex,893583.06499999994,505652.473
"1251 Memorial DR, Building",8,McArthur Engineering Building,893652.01500000001,505562.71799999999
1252 Memorial DR,17,Ashe Administration Building,893876.15800000005,505263.125
1290 Campo Sano DR,0,L-1 Communication Building,893832.13199999998,505986.92200000002
"1300 Campo Sano DR, East",124,Art Building 1 - East,893657.14300000004,506098.21
"1300 Campo Sano DR, West",125,Art Building 1 - West,893521.13899999997,506120.29499999998
1300 Memorial DR,16,Richter Library and Richter Chiller Plan,893634.74199999997,505003.36800000002
1300 Theo Dickinson DR,90,Sculpture Studio,893194.61100000003,502210.72700000001
1300A Memorial DR,6,Memorial Gate House,893144.23899999994,504985.89199999999
1301 Memorial DR,7,Cox Science Center,893366.68200000003,505369.12400000001
1301 Stanford DR,50,Lowe Art Museum,894666.745,504343.22399999999
1303 Stanford DR,43,Behavioral Medical Research Building,894817.86600000004,504665.10800000001
1306 Stanford DR,31,Whitten University Center,893821.40300000005,504487.02600000001
1201 Stanford DR,44,Utility Plant #3,894967.58700000006,504654.63900000002
1310 Campo Sano DR,1,Art Annex Building 3,893411.61,506011.47399999999
"1311 Miller DR, Classroom",14,Law Classroom,893381.554,504887.60600000003
"1311 Miller DR, Law Admin",11,Law Adminstration,893237.66,504807.88199999998
"1311 Miller DR, Meyer",10,Meyer Law Library,893159.37199999997,504798.79599999997
"1311 Miller DR, New Building",15,New Law Building,893418.14899999998,504751.58100000001
"1311 Miller DR, New Law",12,New Law Library,893271.02899999998,504868.64199999999
"1311 Miller DR, Tax",13,Law Tax Wing,893288.86199999996,504707.23499999999
1312 Miller DR,34,Ring Theater,893200.60100000002,504423.66399999999
1314 Miller DR,33,Maurice Gusman Concert Hall,893377.17200000002,504450.17200000002
1320 Campo Sano DR,2,James L. Knight Physics Building,893382.26100000006,505799.98
1320 S. Dixie Highway,127,Gables  One Tower,89379.23,502019.36
1322 Campo Sano DR,126,Botany Greenhouse,893243.53399999999,505724.74800000002
1330 Campo Sano DR,3,Botany Greenhouse,893114.99,505413.41800000001
1330 Miller DR,32,Rathskeller CH Gautier Hall,893531.48600000003,504366.55300000001
"1365 Memorial DR, Ungar",5,Ungar Computer Center,893251.52300000004,505110.245
"1365 Memorial DR, Utility",4,Utility Plant #1,893165.28099999996,505230.32799999998
1507 Levante AV,95,Max Orvitz Building - Administrative Services,891853.24100000004,501275.31300000002
1525 Albenga AV,109,University Village North Garage 111 on map,891786.45900000003,502485.90500000003
1527 Albenga AV,110,University Village Main Office,891783.19900000002,502422.848
1531 Brescia AV,101,Casa Bacardi _ICCAS,891769.80900000001,501683.84299999999
1535 Levante AV,94,Physical Plant Complex,891627.89,501154.33500000002
1540 Corniche AV,108,Building 2,891547.33,502483.14199999999
1540 Levante AV,92,Rainbow Building,892004.78300000005,501116.19300000003
1541 Brescia AV,100,"School of Education, Research at Brescia",891661.20299999998,501694.89199999999
1550 Brescia AV,97,Founders Hall 100 on map,891684.67799999996,501443.87400000001
1551 Brescia AV,99,Albert Pick Hall,891580.03899999999,501686.75099999999
1555 Levante AV,93,Maintenance Building,891481.01699999999,501161.06900000002
1560 Liguria AV,103,Building 6 105 on map,891566.97100000002,501944.41700000002
1565 Liguria AV,106,Building 5 109 on map,891560.51199999999,502214.28499999997
1570 Liguria AV,104,Building 7 106 on map,891512.72,501942.45299999998
1575 Liguria AV,105,Building 4 108 on map,891500.13199999998,502206.99300000002
1585 Albenga AV,107,Building 3,891478.31499999994,502478.739
1590 Scodella AV,102,University Village South Garage 104 on map,891475.59199999995,501707.87099999998
5030 Brunson DR,19,"School of Nursing and Health Studies, West",894255.06599999999,505594.31900000002
5050 Brunson DR,20,Allen Hall School of Continuing Studies,894420.18700000003,505665.27899999998
"5100 Brunson DR, Student Center",21,"School of Communication, Student Center",894413.07900000003,505459.51
"5100 Brunson DR, Wolfson",23,Wolfson Building,894554.17,505568.55
5100 Pisano AV,25,"Centrex Building, Telecommunications",894657.04599999997,505512.82299999997
"5150 Brunson DR, LIRC",22,Whitten Learning Center (LIRC),894535.49300000002,505370.87
5183 Ponce de Leon BLVD,49,Mahoney Pearson Garage,895569.78700000001,504323.94
"5185 Ponce de Leon BLVD, Long",130,"Pearson Residential College, Long Wing",895341.32,504085.989
"5185 Ponce de Leon BLVD, Short",128,"Pearson Residential College, Short Wing",895168.85600000003,504274.32299999997
"5185 Ponce de Leon BLVD, Side",46,Pearson Side Wing,895313.53,504251.54700000002
5200 Brunson DR,24,"School of Nursing and Health Studies, East",894706.67700000003,505424.42
5200 University DR,26,Panhellenic Mary B Merritt,894776.12800000003,505230.76899999997
5202 University DR,27,Merrick Building,894455.40899999999,504947.43699999998
5225 Ponce de Leon Blvd,53,Writing Center,894801.88399999996,503471.82400000002
"5250 University DR, Business",29,School of Business,894302.49800000002,504669.35700000002
"5250 University DR, Jenkins",30,Jenkins Building,894450.64800000004,504671.13099999999
5401 Ponce de Leon Blvd,51,Stanford Gatehouse,895056.26599999995,503786.853
"5501 San Amaro DR, Foster Memorial",41,Bertha Foster Memorial Music Building,892819.9,504115.40600000002
"5501 San Amaro DR, Handleman",39,Handleman (Music),892977.71,504116.50400000002
"5501 San Amaro DR, L&Tech Ctr.",35,Martha & Austin Weeks Music Library & Tech. Ctr.,893129.473,504239.35800000001
"5501 San Amaro DR, Library",38,Pick Music Library,893007.12699999998,504051.35399999999
"5501 San Amaro DR, Percussion",42,Percussion Building,892739.56900000002,503972.99699999997
"5501 San Amaro DR, R&P",37,L. Austin Weeks Center for Recording and Performance,893155.73300000001,504094.34899999999
"5501 San Amaro DR, Rehearsal",40,Rehearsal Center,892874.24300000002,503990.27299999999
"5501 San Amaro DR, Volpe",36,Volpe Classroom (Music) + A25,893071.28099999996,504170.62800000003
5513 Geo E Merrick St,52,Student Health Center,894509.60100000002,504011.56800000003
5600 Geo E Merrick St,55,Building #21 - Guidance Center,894213.16599999997,503867.28399999999
5615 Pavia St,54,Pavia Garage,894485.30200000003,503768.17499999999
5616 Geo E Merrick St,56,Building #22 - Brunstetter,894333.75800000003,503613.75900000002
5638 Geo E Merrick St,57,Building #23 - Grosvenor,894488.27500000002,503394.261
"5665 Ponce de Leon BLVD, Flipse",123,Flipse Building,893056.50699999998,501950.05499999999
"5665 Ponce de Leon BLVD, Garage",122,Ponce Garage,892871.05299999996,501865.95600000001
5685 Ponce de Leon BLVD,89,Ron Fraser Baseball Building,892528.973,501450.652
"5779 San Amaro DR, Yaron Field House",78,Yaron Field House Storage,892599.21799999999,503149.25400000002
5801 Red Road,120,Old School of Nursing - to be demolished,891426.14199999999,502715.17
"5801 San Amaro DR, Tennis Building",79,"Tennis Building, Neil Schiff",892347.24699999997,502912.07500000001
"5801 San Amaro DR, Tennis Center",80,"Tennis Center, Neil Schiff",892360.52,503032.47899999999
5813 Ponce de Leon BLVD,91,William L. McKnight Building,892276.28300000005,501189.15100000001
"5821 Hurricane DR, Center",82,Hecht Athletic Center,892358.66299999994,502658.90399999998
"5821 San Amaro DR, Fame",84,Hall of Fame,892327.304,502522.777
"5821 San Amaro DR, Sports",83,Knight Sports Complex,892481.29700000002,502538.70199999999
5850 San Amaro DR,111,Building 1,892024.495,502487.71799999999
5915 Ponce de Leon BLVD,132,Plummer Building,892107.03200000001,501012.946
6001 San Aamro DR,85,Cobb Stadium,892265.92099999997,502165.49699999997
6200 San Amaro DR,96,Theater Arts - Dance Studio,892059.28200000001,501423.57299999997
"6201 San Amaro DR, Media",86,Baseball Media Building,892308.39399999997,501558.28899999999
"6201 San Amaro DR, Stadium",87,Mark Light Baseball Stadium,892389.13100000005,501428.88400000002
A23,134,grid A23,891391.63300000003,500903.85
A24,135,grid A24,891468.09600000002,500806.63299999997
A27,900,grid A27,891725.57200000004,500535.467
A28,901,grid A28,891799.84,500453.98499999999
AA10,136,grid AA10,892683.29200000002,504192.60800000001
AA11,137,grid AA11,892750.68099999998,504106.47399999999
AA14,138,grid AA14,892985.08900000004,503836.90500000003
AA15,139,grid AA15,893063.87800000003,503749.40100000001
AA16,140,grid AA16,893151.41899999999,503661.43900000001
AA18,141,grid AA18,893334.79399999999,503476.30300000001
AA19,142,grid AA19,893408.978,503384.65299999999
AA20,143,grid AA20,893491.45400000003,503283.79100000003
AA21,144,grid AA21,893561.49100000004,503196.74599999998
AA22,145,grid AA22,893653.179,503104.17800000001
AA23,146,grid AA23,893735.65500000003,503003.31699999998
AA24,147,grid AA24,893819.049,502919.96
AA25,148,grid AA25,893905.67299999995,502814.49300000002
AA26,149,grid AA26,893975.71,502727.44799999997
AA27,952,grid AA27,894072.25899999996,502642.625
AA28,953,grid AA28,894144.19900000002,502565.4
B22,150,grid B22,891400.76699999999,501078.13799999998
B23,151,grid B23,891483.34400000004,500986.42700000003
B24,152,grid B24,891559.80700000003,500889.21
B27,902,grid B27,891826.58100000001,500619.071
B28,903,grid B28,891895.97900000005,500541.99699999997
BB10,153,grid BB10,892762.50199999998,504278.60700000002
BB11,154,grid BB11,892850.04299999995,504190.64500000002
BB12,155,grid BB12,892917.30500000005,504103.12199999997
BB13,156,grid BB13,892999.32700000005,504024.848
BB14,157,grid BB14,893077.65700000001,503928.59299999999
BB15,158,grid BB15,893168.88600000006,503827.272
BB16,159,grid BB16,893255.96799999999,503730.55800000002
BB17,160,grid BB17,893335.21600000001,503651.80599999998
BB18,161,grid BB18,893425.76699999999,503543.26699999999
BB19,162,grid BB19,893506.19099999999,503461.01699999999
BB21,163,grid BB21,893658.20499999996,503283.82799999998
BB22,164,grid BB22,893749.89300000004,503194.26
BB23,165,grid BB23,893832.82900000003,503099.15100000001
BB24,166,grid BB24,893919.91099999996,503002.43699999998
BB25,167,grid BB25,894002.84600000002,502910.32799999998
BB26,168,grid BB26,894077.03,502818.67700000003
BB27,954,grid BB27,894166.76300000004,502730.12300000002
BB28,955,grid BB28,894239.76800000004,502649.04300000001
C21,169,grid C21,891406.88399999996,501251.14199999999
C22,170,grid C22,891506.93700000003,501160.13400000002
C23,171,grid C23,891577.98300000001,501061.11700000003
C24,172,grid C24,891658.24199999997,500988.91200000001
C27,904,grid C27,891915.96,500701.99599999998
C28,905,grid C28,891990.36199999996,500622.08299999998
CC10,173,grid CC10,892855.07,504370.29499999998
CC11,174,grid CC11,892952.28899999999,504257.32699999999
CC12,175,grid CC12,893021.00100000005,504183.50799999997
CC13,176,grid CC13,893099.07700000005,504104.50900000002
CC14,177,grid CC14,893187.27099999995,504010.61099999998
CC15,178,grid CC15,893266.06,503923.10700000002
CC16,179,grid CC16,893356.83,503813.03499999997
CC17,180,grid CC17,893431.47199999995,503730.136
CC18,181,grid CC18,893524.25699999998,503631.94799999997
CC19,182,grid CC19,893580.29700000002,503555.58799999999
CC20,183,grid CC20,893681.196,503471.31300000002
CC22,184,grid CC22,893847.75300000003,503274.16899999999
CC23,185,grid CC23,893933.69,503181.62800000003
CC24,186,grid CC24,894020.772,503084.913
CC25,187,grid CC25,894090.80900000001,502997.86800000002
CC26,188,grid CC26,894173.74399999995,502905.75900000002
CC27,956,grid CC27,894257.147,502811.50599999999
CC28,957,grid CC28,894331.61300000001,502734.14799999999
D19,189,grid D19,891377.38800000004,501524.50599999999
D20,190,grid D20,891434.85499999998,501421.20500000002
D21,191,grid D21,891510.90099999995,501326.69
D22,192,grid D22,891596.94900000002,501241.18099999998
D24,193,grid D24,891745.03700000001,501066.65600000002
D27,906,grid D27,892015.75100000005,500786.95199999999
D28,907,grid D28,892081.36199999996,500711.36499999999
DD10,194,grid DD10,892946.59699999995,504456.70799999998
DD11,195,grid DD11,893021.81299999997,504350.69400000002
DD14,196,grid DD14,893269.64099999995,504093.717
DD15,197,grid DD15,893359.07,503992.174
DD16,198,grid DD16,893446.69099999999,503894.86200000002
DD17,199,grid DD17,893522.88199999998,503810.24300000002
DD18,200,grid DD18,893607.14099999995,503723.93800000002
DD19,201,grid DD19,893698.95799999998,503637.74099999998
DD20,202,grid DD20,893770.92500000005,503543.272
DD21,203,grid DD21,893854.31499999994,503442.15
DD22,204,grid DD22,893942.35600000003,503352.87900000002
DD23,205,grid DD23,894010.50699999998,503268.68099999998
DD24,206,grid DD24,894094.31700000004,503175.6
DD25,207,grid DD25,894189.55700000003,503069.826
DD26,208,grid DD26,894278.02,502988.59499999997
DD27,958,grid DD27,894355.24199999997,502895.01699999999
DD28,959,grid DD28,894424.65599999996,502817.924
DD9,209,grid DD9,892875.41099999996,504535.76699999999
E18,210,grid E18,891372.77399999998,501691.28100000002
E19,211,grid E19,891448.821,501596.766
E20,212,grid E20,891529.86800000002,501506.755
E21,213,grid E21,891614.91899999999,501402.239
E22,214,grid E22,891686.96100000001,501322.228
E23,215,grid E23,891786.51599999995,501221.717
E24,216,grid E24,891854.05599999998,501146.70699999999
E25,217,grid E25,891949.60699999996,501060.7
E26,218,grid E26,892044.16099999996,500955.68599999999
E27,908,grid E27,892105.26399999997,500872.44699999999
E28,909,grid E28,892179.53200000001,500789.96399999998
EE10,219,grid EE10,893044.527,504528.69699999999
EE11,220,grid EE11,893130.54500000004,504431.59899999999
EE13,221,grid EE13,893284.26399999997,504271.56800000003
EE14,222,grid EE14,893367.45400000003,504171.00099999999
EE15,223,grid EE15,893459.54,504080.08500000002
EE16,224,grid EE16,893540.33200000005,503979
EE17,225,grid EE17,893629.62100000004,503875.913
EE19,226,grid EE19,893795.69099999999,503718.109
EE20,227,grid EE20,893860.66700000002,503623.23300000001
EE21,228,grid EE21,893952.75300000003,503532.31699999998
EE22,229,grid EE22,894039.19200000004,503436.31599999999
EE23,230,grid EE23,894110.37800000003,503357.25699999998
EE24,231,grid EE24,894201.902,503255.609
EE25,232,grid EE25,894293.42599999998,503153.962
EE26,233,grid EE26,894367.34699999995,503066.625
EE27,960,grid EE27,894442.03500000003,502980.38699999999
EE28,961,grid EE28,894515.04,502899.30699999997
EE9,234,grid EE9,892956.06499999994,504609.92800000001
F17,235,grid F17,891372.23600000003,501862.83799999999
F20,236,grid F20,891624.38199999998,501582.80099999998
F21,237,grid F21,891687.91700000002,501522.29499999998
F22,238,grid F22,891786.47600000002,501402.777
F23,239,grid F23,891859.51399999997,501341.77299999999
F24,240,grid F24,891943.56900000002,501218.25099999999
F26,241,grid F26,892124.17200000002,501027.728
F27,910,grid F27,892194.37300000002,500950.23200000002
F28,911,grid F28,892271.21100000001,500867.61499999999
FF10,242,grid FF10,893139.59299999999,504600.86499999999
FF12,243,grid FF12,893292.43299999996,504431.11900000001
FF13,244,grid FF13,893363.86100000003,504341.75
FF14,245,grid FF14,893445.27300000004,504261.37300000002
FF15,246,grid FF15,893530.68400000001,504166.51400000002
FF16,247,grid FF16,893620.59,504066.66399999999
FF17,248,grid FF17,893710.49600000004,503966.81300000002
FF18,249,grid FF18,893791.41099999996,503876.94699999999
FF19,250,grid FF19,893858.34400000004,503792.57199999999
FF20,251,grid FF20,893953.24199999997,503697.21600000001
FF21,252,grid FF21,894029.16500000004,503602.85499999998
FF22,253,grid FF22,894110.08,503512.99
FF23,254,grid FF23,894200.48400000005,503422.62699999998
FF24,255,grid FF24,894281.39899999998,503332.761
FF25,256,grid FF25,894371.80200000003,503242.39799999999
FF26,257,grid FF26,894452.22,503143.04499999998
FF27,962,grid FF27,894535.87800000003,503055.255
FF28,963,grid FF28,894605.29200000002,502978.163
FF8,258,grid FF8,892980.41099999996,504793.91499999998
FF9,259,grid FF9,893045.19200000004,504705.70799999998
G16,260,grid G16,891381.201,502033.897
G17,261,grid G17,891462.24800000002,501943.88500000001
G18,262,grid G18,891538.79200000002,501858.87400000001
G19,263,grid G19,891627.76800000004,501776.32799999998
G21,264,grid G21,891785.93799999997,501574.33399999997
G22,265,grid G22,891871.48699999996,501479.32199999999
G23,266,grid G23,891957.03700000001,501384.30900000001
G24,267,grid G24,892024.07799999998,501299.79599999997
G25,268,grid G25,892123.13500000001,501189.78200000001
G26,269,grid G26,892205.179,501118.77600000001
G27,912,grid G27,892283.61699999997,501030.58799999999
G28,913,grid G28,892348.95799999998,500949.86099999998
GG10,270,grid GG10,893235.24699999997,504689.53499999997
GG11,271,grid GG11,893303.36800000002,504602.951
GG12,272,grid GG12,893383.77899999998,504523.201
GG13,273,grid GG13,893468.29500000004,504431.16700000002
GG14,274,grid GG14,893556.52800000005,504321.788
GG15,275,grid GG15,893628.74899999995,504249.21899999998
GG16,276,grid GG16,893714.65500000003,504161.45299999998
GG17,277,grid GG17,893796.00399999996,504055.82400000002
GG18,278,grid GG18,893877.73100000003,503957.41499999998
GG19,279,grid GG19,893956.79399999999,503877.24699999997
GG20,280,grid GG20,894038.522,503778.83899999998
GG21,281,grid GG21,894121.38500000001,503702.092
GG22,282,grid GG22,894203.11199999996,503603.68400000001
GG23,283,grid GG23,894291.647,503530.69799999997
GG24,284,grid GG24,894370.745,503417.50799999997
GG25,285,grid GG25,894459.69299999997,503318.772
GG27,964,grid GG27,894627.723,503140.36
GG28,965,grid GG28,894702.98899999994,503054.09600000002
GG7,286,grid GG7,892974.94400000002,504967.70199999999
GG8,287,grid GG8,893050.20799999998,504884.11300000001
H11,288,grid H11,893406.73800000001,504670.967
H15,289,grid H15,891381.16,502214.95699999999
H16,290,grid H16,891464.71799999999,502081.93099999998
H17,291,grid H17,891537.755,502020.92700000003
H18,292,grid H18,891637.31099999999,501920.41600000003
H19,293,grid H19,891704.85,501845.40600000002
H20,294,grid H20,891781.39500000002,501760.39500000002
H21,295,grid H21,891885.45299999998,501654.88299999997
H22,296,grid H22,891966.5,501564.87099999998
H23,297,grid H23,892034.03899999999,501489.86099999998
H24,298,grid H24,892123.59299999999,501380.34499999997
H25,299,grid H25,892205.14300000004,501285.33299999998
H27,914,grid H27,892368.93799999997,501109.86
H28,915,grid H28,892439.68799999997,501034.00300000003
HH10,300,grid HH10,893325.11600000004,504782.66600000003
HH12,301,grid HH12,893482.20499999996,504608.2
HH13,302,grid HH13,893547.69200000004,504514.42099999997
HH14,303,grid HH14,893641.11300000001,504418.64
HH15,304,grid HH15,893723.53599999996,504317.29300000001
HH16,305,grid HH16,893816.49600000004,504229.30499999999
HH17,306,grid HH17,893887.45600000001,504135.24200000003
HH18,307,grid HH18,893971.73800000001,504050.37199999997
HH19,308,grid HH19,894050.75699999998,503957.66700000002
HH20,309,grid HH20,894134.64599999995,503859.55300000001
HH21,310,grid HH21,894199.59900000005,503757.745
HH22,311,grid HH22,894296.51899999997,503684.72100000002
HH23,312,grid HH23,894389.755,503586.11700000003
HH24,313,grid HH24,894462.32900000003,503495.62400000001
HH25,314,grid HH25,894557.53399999999,503389.88799999998
HH26,315,grid HH26,894630.35400000005,503304.06900000002
HH27,966,grid HH27,894715.58200000005,503221.875
HH28,967,grid HH28,894791.11199999996,503140.663
HH6,316,grid HH6,892990.88,505133.397
HH7,317,grid HH7,893062.71100000001,505053.60800000001
HH8,318,grid HH8,893146.78099999996,504965.47200000001
I13,319,grid I13,891347.09100000001,502474.03499999997
I15,320,grid I15,891464.92700000003,502258.62800000003
I16,321,grid I16,891547.71600000001,502210.99300000002
I17,322,grid I17,891650.77800000005,502086.47399999999
I18,323,grid I18,891722.32200000004,501996.96
I19,324,grid I19,891794.36399999994,501916.95
I20,325,grid I20,891889.41700000002,501821.43900000001
I21,326,grid I21,891970.46400000004,501731.42800000001
I22,327,grid I22,892051.51100000006,501641.41600000003
I23,328,grid I23,892137.06,501546.40299999999
I24,329,grid I24,892213.60499999998,501461.39199999999
I25,330,grid I25,892308.16,501356.37800000003
I26,331,grid I26,892375.69900000002,501281.36800000002
I27,916,grid I27,892461.02099999995,501195.22
I28,917,grid I28,892532.98800000001,501118.011
II11,332,grid II11,893495.22900000005,504757.609
II12,333,grid II12,893545.174,504682.36
II13,334,grid II13,893640.89099999995,504596.46399999998
II15,335,grid II15,893817.74899999995,504384.52899999998
II16,336,grid II16,893888.6,504305.89299999998
II17,337,grid II17,893977.16299999994,504207.533
II18,338,grid II18,894066.21499999997,504118.52
II19,339,grid II19,894138.79,504028.02799999999
II20,340,grid II20,894223.90399999998,503953.27899999998
II21,341,grid II21,894303.12100000004,503855.40899999999
II22,342,grid II22,894389.71499999997,503764.18199999997
II23,343,grid II23,894471.14599999995,503663.85399999999
II24,344,grid II24,894555.52500000002,503575.08600000001
II25,345,grid II25,894634.98699999996,503481.89
II26,346,grid II26,894723.55,503383.53100000002
II27,968,grid II27,894808.35900000005,503300.59899999999
II28,969,grid II28,894876.44400000002,503222.31
II5,347,grid II5,892982.799,505306.94
II6,348,grid II6,893073.821,505210.79499999998
II8,349,grid II8,893246.51899999997,505018.995
II9,350,grid II9,893318.00600000005,504956.85600000003
J12,351,grid J12,891342.54799999995,502660.09600000002
J13,352,grid J13,891392.07700000005,502605.08899999998
J14,353,grid J14,891498.64500000002,502456.56300000002
J15,354,grid J15,891569.19299999997,502348.04300000001
J16,355,grid J16,891674.24699999997,502261.538
J17,356,grid J17,891736.78599999996,502182.02500000002
J18,357,grid J18,891808.82700000005,502102.01500000001
J19,358,grid J19,891898.88,502002.00099999999
J20,359,grid J20,891979.92700000003,501911.99
J21,360,grid J21,892050.97199999995,501812.973
J22,361,grid J22,892137.02,501727.46299999999
J23,362,grid J23,892222.57,501632.451
J25,363,grid J25,892385.16200000001,501461.93
J26,364,grid J26,892488.22400000005,501337.41200000001
J27,918,grid J27,892554.05200000003,501274.08799999999
J28,919,grid J28,892625.88399999996,501194.31
JJ12,365,grid JJ12,893644.549,504747.19199999998
JJ13,366,grid JJ13,893728.78099999996,504662.152
JJ17,367,grid JJ17,894066.84900000005,504290.26400000002
JJ18,368,grid JJ18,894131.75199999998,504197.59
JJ19,369,grid JJ19,894215.56299999997,504104.50900000002
JJ20,370,grid JJ20,894307.83499999996,504019.04700000002
JJ24,371,grid JJ24,894643.07799999998,503646.72200000001
JJ25,372,grid JJ25,894718.848,503554.06300000002
JJ27,970,grid JJ27,894891.03300000005,503379.85200000001
JJ28,971,grid JJ28,894962.70900000003,503297.576
JJ3,373,grid JJ3,892923.71400000004,505565.41800000001
JJ4,374,grid JJ4,892996.92200000002,505466.45500000002
JJ5,375,grid JJ5,893076.92299999995,505377.60499999998
JJ6,376,grid JJ6,893149.72600000002,505305.25699999998
JJ8,377,grid JJ8,893342.49699999997,505105.93099999998
JJ9,378,grid JJ9,893392.27399999998,505010.35499999998
K11,379,grid K11,891341.01300000004,502812.64600000001
K13,380,grid K13,891478.60199999996,502619.61300000001
K14,381,grid K14,891583.15800000005,502523.60399999999
K15,382,grid K15,891636.69200000004,502454.09299999999
K16,383,grid K16,891736.24699999997,502353.58199999999
K17,384,grid K17,891816.79599999997,502254.06699999998
K18,385,grid K18,891902.84400000004,502168.55800000002
K19,386,grid K19,891988.39300000004,502073.54499999998
K20,387,grid K20,892064.93799999997,501988.53399999999
K21,388,grid K21,892141.48199999996,501903.52299999999
K22,389,grid K22,892227.03200000001,501808.51
K23,390,grid K23,892307.58100000001,501708.995
K24,391,grid K24,892393.62899999996,501623.48599999998
K25,392,grid K25,892469.67500000005,501528.97200000001
K26,393,grid K26,892573.23499999999,501413.95699999999
K27,920,grid K27,892640.32200000004,501346.86900000001
K28,921,grid K28,892709.98899999994,501274.935
KK12,394,grid KK12,893725.35800000001,504827.61499999999
KK13,395,grid KK13,893809.59,504742.57400000002
KK17,396,grid KK17,894157.27,504365.29599999997
KK18,397,grid KK18,894232.03099999996,504264.89799999999
KK19,398,grid KK19,894308.223,504180.27899999998
KK2,399,grid KK2,892938.46299999999,505735.58500000002
KK20,400,grid KK20,894384.41399999999,504095.65899999999
KK22,401,grid KK22,894555.84499999997,503905.266
KK23,402,grid KK23,894634.995,503819.39899999998
KK24,403,grid KK24,894719.65599999996,503723.33500000002
KK25,404,grid KK25,894813.52099999995,503632.48300000001
KK26,405,grid KK26,894899.549,503540.56099999999
KK27,972,grid KK27,894979.82299999997,503454.98599999998
KK28,973,grid KK28,895052.696,503371.38
KK3,406,grid KK3,892985.88,505640.38
KK4,407,grid KK4,893065.88100000005,505551.53
KK5,408,grid KK5,893161.96299999999,505461.837
KK8,409,grid KK8,893398.15700000001,505199.51799999998
KK9,410,grid KK9,893489.58600000001,505097.97499999998
L10,411,grid L10,891325.473,502970.69500000001
L11,412,grid L11,891392.01599999995,502876.679
L12,413,grid L12,891478.06400000001,502791.17
L13,414,grid L13,891550.10600000003,502711.15899999999
L14,415,grid L14,891640.65599999996,502620.64899999998
L17,416,grid L17,891901.80700000003,502330.61099999998
L18,417,grid L18,891982.85400000005,502246.6
L19,418,grid L19,892049.89500000002,502156.08600000001
L20,419,grid L20,892135.44499999995,502061.07400000002
L21,420,grid L21,892219.65700000001,501982.05599999998
L22,421,grid L22,892300.44900000002,501880.97
L23,422,grid L23,892382.01899999997,501791.78700000001
L24,423,grid L24,892478.14199999999,501690.527
L25,424,grid L25,892558.69099999999,501591.01199999999
L26,425,grid L26,892635.23499999999,501506.00099999999
L27,922,grid L27,892714.48899999994,501421.61200000002
L28,923,grid L28,892784.81499999994,501338.071
LL1,426,grid LL1,892948.228,505884.31400000001
LL12,427,grid LL12,893821.88199999998,504905.38400000002
LL13,428,grid LL13,893890.64399999997,504811.74
LL14,429,grid LL14,893972.29200000002,504729.69900000002
LL15,430,grid LL15,894065.11499999999,504626.609
LL16,431,grid LL16,894146.33499999996,504536.40500000003
LL17,432,grid LL17,894239.15800000005,504433.315
LL18,433,grid LL18,894300.18400000001,504348.26199999999
LL19,434,grid LL19,894389.995,504263.79300000001
LL2,435,grid LL2,893012.37800000003,505814.55699999997
LL20,436,grid LL20,894487.54099999997,504174.73300000001
LL21,437,grid LL21,894560.598,504084.95699999999
LL22,438,grid LL22,894645.25800000003,503982.29499999998
LL23,439,grid LL23,894730.34600000002,503887.79499999998
LL24,440,grid LL24,894807.68900000001,503801.886
LL25,441,grid LL25,894892.78599999996,503707.38699999999
LL26,442,grid LL26,894970.56599999999,503629.641
LL27,974,grid LL27,895063.69400000002,503532.91
LL28,975,grid LL28,895134.04,503449.43699999998
LL3,443,grid LL3,893087.00199999998,505723.76899999997
LL4,444,grid LL4,893170.00300000003,505639.49699999997
LL5,445,grid LL5,893250.39199999999,505533.79700000002
LL8,446,grid LL8,893492.70700000005,505262.33299999998
LL9,447,grid LL9,893566.19200000004,505176.85200000001
M10,448,grid M10,891395.98,503043.23499999999
M11,449,grid M11,891486.03200000001,502943.22200000001
M12,450,grid M12,891563.07499999995,502867.71399999998
M13,451,grid M13,891644.12199999997,502777.70199999999
M14,452,grid M14,891731.16599999997,502711.2
M15,453,grid M15,891811.21699999995,502602.18099999998
M18,454,grid M18,892053.86,502322.64299999998
M19,455,grid M19,892139.40899999999,502227.63
M20,456,grid M20,892220.45600000001,502137.61800000002
M21,457,grid M21,892297.00100000005,502052.60700000002
M22,458,grid M22,892401.05900000001,501947.09499999997
M23,459,grid M23,892468.1,501862.58199999999
M24,460,grid M24,892563.15300000005,501767.07199999999
M25,461,grid M25,892639.19900000002,501672.55699999997
M26,462,grid M26,892720.74399999995,501592.049
M27,924,grid M27,892798.43500000006,501499.64500000002
M28,925,grid M28,892872.81499999994,501419.755
MM1,463,grid MM1,893033.70799999998,505953.50400000002
MM12,464,grid MM12,893907.79099999997,504982.73700000002
MM13,465,grid MM13,893980.848,504892.96
MM14,466,grid MM14,894065.93599999999,504798.46100000001
MM15,467,grid MM15,894151.451,504712.125
MM16,468,grid MM16,894232.67099999997,504621.92099999997
MM17,469,grid MM17,894317.33100000001,504519.25799999997
MM18,470,grid MM18,894406.71400000004,504428.62599999999
MM19,471,grid MM19,894484.06700000004,504342.71799999999
MM2,472,grid MM2,893095.59,505884.772
MM21,473,grid MM21,894641.78399999999,504150.27899999998
MM22,474,grid MM22,894735.46200000006,504063.51500000001
MM23,475,grid MM23,894808.09199999995,503965.57500000001
MM24,476,grid MM24,894897.47499999998,503874.94400000002
MM25,477,grid MM25,894986.43,503776.14899999998
MM26,478,grid MM26,895056.04700000002,503698.83100000001
MM27,976,grid MM27,895155.14300000004,503610.43699999998
MM28,977,grid MM28,895223.228,503532.14799999999
MM3,479,grid MM3,893161.34,505811.755
MM5,480,grid MM5,893347.84100000001,505621.9
MM6,481,grid MM6,893424.69099999999,505536.00799999997
MM7,482,grid MM7,893511.74199999997,505436.21600000001
MM8,483,grid MM8,893580.12800000003,505354.353
MM9,484,grid MM9,893674.48400000005,505241.47399999999
N10,485,grid N10,891513.50600000005,503103.78200000001
N11,486,grid N11,891586.04599999997,503033.27399999998
N12,487,grid N12,891644.08200000005,502958.76299999998
N13,488,grid N13,891729.63100000005,502863.75
N14,489,grid N14,891810.18,502764.23499999999
N15,490,grid N15,891895.23199999996,502659.71899999998
N16,491,grid N16,891987.27599999995,502597.71899999998
N17,492,grid N17,892071.83,502483.7
N18,493,grid N18,892157.87699999998,502398.19099999999
N19,494,grid N19,892238.924,502308.179
N20,495,grid N20,892323.97600000002,502203.663
N21,496,grid N21,892396.01800000004,502123.65299999999
N22,497,grid N22,892481.06900000002,502019.13699999999
N23,498,grid N23,892557.61399999994,501934.12599999999
N24,499,grid N24,892634.65599999996,501858.61800000002
N25,500,grid N25,892723.21400000004,501730.09499999997
N26,501,grid N26,892805.755,501668.59299999999
N27,926,grid N27,892893.05900000001,501584.84499999997
N28,927,grid N28,892962.16799999995,501502.65600000002
NN1,502,grid NN1,893115.74899999995,506035.152
NN11,503,grid NN11,893920.21499999997,505141.70199999999
NN12,504,grid NN12,893985.96400000004,505068.68
NN13,505,grid NN13,894074.92,504969.88500000001
NN14,506,grid NN14,894156.14,504879.68099999998
NN18,507,grid NN18,894488.755,504510.27399999998
NN19,508,grid NN19,894573.70799999998,504426.527
NN2,509,grid NN2,893177.63100000005,505966.42499999999
NN21,510,grid NN21,894728.12,504235.79399999999
NN22,511,grid NN22,894821.37100000004,504140.86700000003
NN23,512,grid NN23,894894.42799999996,504051.09100000001
NN24,513,grid NN24,894972.63600000006,503981.50799999997
NN25,514,grid NN25,895072.33900000004,503853.50099999999
NN26,515,grid NN26,895150.11899999995,503775.75599999999
NN27,978,grid NN27,895240.21,503687.03200000001
NN28,979,grid NN28,895314.41200000001,503604.62300000002
NN3,516,grid NN3,893254.55599999998,505872.353
NN5,517,grid NN5,893436.02399999998,505684.74300000002
NN6,518,grid NN6,893492.01199999999,505605.79200000002
NN8,519,grid NN8,893676.98199999996,505420.47700000001
NN9,520,grid NN9,893750.03899999999,505330.701
O11,521,grid O11,891671.55,503119.32199999999
O12,522,grid O12,891748.09900000005,503034.31099999999
O13,523,grid O13,891829.64399999997,502953.80200000003
O14,524,grid O14,891919.69700000004,502853.78899999999
O15,525,grid O15,891977.23400000005,502769.77399999998
O16,526,grid O16,892090.29799999995,502654.261
O17,527,grid O17,892162.34,502574.25
O18,528,grid O18,892257.39199999999,502478.74
O19,529,grid O19,892334.43500000006,502403.23200000002
O20,530,grid O20,892423.98899999994,502293.71600000001
O21,531,grid O21,892496.03099999996,502213.70500000002
O22,532,grid O22,892567.57499999995,502124.19099999999
O23,533,grid O23,892671.63300000003,502018.679
O24,534,grid O24,892739.17200000002,501943.67
O26,535,grid O26,892900.76800000004,501754.14299999998
O27,928,grid O27,892988.76699999999,501666.125
O28,929,grid O28,893060.44400000002,501583.80099999998
OO1,536,grid OO1,893222.27899999998,506115.516
OO12,537,grid OO12,894086.25399999996,505155.64899999998
OO13,538,grid OO13,894173.25600000005,505070.38
OO14,539,grid OO14,894261.07299999997,504972.88500000001
OO18,540,grid OO18,894578.95900000003,504591.49400000001
OO19,541,grid OO19,894664.42500000005,504505.158
OO2,542,grid OO2,893272.13100000005,506051.51299999998
OO21,543,grid OO21,894843.86899999995,504314.23100000003
OO22,544,grid OO22,894907.70700000005,504226.38299999997
OO23,545,grid OO23,894992.79500000004,504131.88299999997
OO25,546,grid OO25,895154.80700000003,503943.31199999998
OO26,547,grid OO26,895240.32299999997,503856.97600000002
OO27,980,grid OO27,895327.93599999999,503766.02100000001
OO28,981,grid OO28,895401.33799999999,503692.51899999997
OO3,548,grid OO3,893341.32,505966.03200000001
OO5,549,grid OO5,893519.65899999999,505776.60499999998
OO8,550,grid OO8,893750.43299999996,505494.39
OO9,551,grid OO9,893836.804,505424.38
P12,552,grid P12,891838.72600000002,503124.44099999999
P13,553,grid P13,891921.95600000001,503032.005
P14,554,grid P14,892005.18599999999,502939.56800000003
P15,555,grid P15,892085.21600000001,502850.68699999998
P16,556,grid P16,892175.20200000005,502757.89600000001
P17,557,grid P17,892243.63800000004,502658.37699999998
P20,558,grid P20,892504.80099999998,502392.18099999998
P21,559,grid P21,892584.59699999995,502296.06800000003
P22,560,grid P22,892680.598,502189.73800000001
P23,561,grid P23,892757.14199999999,502104.72700000001
P24,562,grid P24,892829.68200000003,502034.22
P26,563,grid P26,892999.28700000001,501815.685
P27,930,grid P27,893082.04,501750.109
P28,931,grid P28,893153.85199999996,501670.35399999999
PP1,564,grid PP1,893309.30900000001,506197.98300000001
PP10,565,grid PP10,894038.27800000005,505397.26
PP11,566,grid PP11,894102.728,505319
PP12,567,grid PP12,894171.78099999996,505240.739
PP13,568,grid PP13,894268.69400000002,505146.087
PP14,569,grid PP14,894337.65099999995,505049.49800000002
PP16,570,grid PP16,894497.25300000003,504864.62800000003
PP17,571,grid PP17,894591.62600000005,504761.04800000001
PP18,572,grid PP18,894674.49,504678.18400000001
PP19,573,grid PP19,894755.05200000003,504597.62199999997
PP2,574,grid PP2,893369.88800000004,506139.10100000002
PP20,575,grid PP20,894844.82200000004,504503.24900000001
PP21,576,grid PP21,894923.08200000005,504406.57400000002
PP22,577,grid PP22,895003.64399999997,504312.201
PP24,578,grid PP24,895194.69200000004,504111.946
PP25,579,grid PP25,895256.84,504040.59100000001
PP26,580,grid PP26,895346.64300000004,503948.90299999999
PP27,982,grid PP27,895425.36300000001,503860.96500000003
PP28,983,grid PP28,895495.71,503777.49200000003
PP3,581,grid PP3,893449.33900000004,506061.40500000003
PP6,582,grid PP6,893685.32799999998,505780.37099999998
PP7,583,grid PP7,893779.67,505690.446
PP8,584,grid PP8,893861.92,505597.85499999998
PP9,585,grid PP9,893945.68700000003,505493.32699999999
Q13,586,grid Q13,891990.73199999996,503116.70500000002
Q14,587,grid Q14,892078.27300000004,503028.74300000002
Q15,588,grid Q15,892177.79500000004,502918.212
Q16,589,grid Q16,892252.43700000003,502835.31300000002
Q17,590,grid Q17,892327.07900000003,502752.41499999998
Q20,591,grid Q20,892571.28,502471.94099999999
Q21,592,grid Q21,892671.424,502388.82900000003
Q22,593,grid Q22,892750.50899999996,502291.41100000002
Q23,594,grid Q23,892824.69200000004,502199.76
Q24,595,grid Q24,892912.223,502111.79800000001
Q26,596,grid Q26,893085.93900000001,501909.61599999998
Q27,932,grid Q27,893173.69200000004,501827.73700000002
Q28,933,grid Q28,893240.50100000005,501750.82
QQ1,597,grid QQ1,893397.00199999998,506282.58500000002
QQ13,598,grid QQ13,894348.55799999996,505238.89799999999
QQ14,599,grid QQ14,894429.12,505144.52500000002
QQ16,600,grid QQ16,894606.35699999996,504948.87400000001
QQ17,601,grid QQ17,894690.37199999997,504846.44400000002
QQ18,602,grid QQ18,894761.72699999996,504765.88199999998
QQ2,603,grid QQ2,893475.26300000004,506227.28200000001
QQ20,604,grid QQ20,894936.66299999994,504586.34299999999
QQ22,605,grid QQ22,895097.78700000001,504397.59700000001
QQ23,606,grid QQ23,895189.85800000001,504323.94
QQ25,607,grid QQ25,895367.09600000002,504128.28899999999
QQ26,608,grid QQ26,895438.451,504047.72700000001
QQ27,984,grid QQ27,895511.89199999999,503941.283
QQ28,985,grid QQ28,895589.94900000002,503859.93800000002
QQ4,609,grid QQ4,893613.36899999995,506038.53600000002
QQ5,610,grid QQ5,893702.44799999997,505963.28600000002
QQ6,611,grid QQ6,893785.31200000003,505857.386
QQ7,612,grid QQ7,893891.19400000002,505779.12599999999
QQ8,613,grid QQ8,893962.549,505698.56300000002
QQ9,614,grid QQ9,894047.71499999997,505599.587
R14,615,grid R14,892200.78500000003,503105.69699999999
R15,616,grid R15,892261.61100000003,503010.35800000001
R16,617,grid R16,892339.48199999996,502905.35
R17,618,grid R17,892427.48199999996,502826.14
R18,619,grid R18,892506.27099999995,502738.636
R19,620,grid R19,892611.18099999998,502643.25699999998
R20,621,grid R20,892672.14099999995,502554.41800000001
R21,622,grid R21,892750.93,502466.91399999999
R22,623,grid R22,892838.01199999999,502370.19900000002
R23,624,grid R23,892916.80099999998,502282.696
R24,625,grid R24,893008.48899999994,502190.12800000003
R25,626,grid R25,893090.96600000001,502089.266
R26,627,grid R26,893169.75399999996,502001.76299999998
R27,934,grid R27,893261.55799999996,501906.85200000001
R28,935,grid R28,893330.80200000003,501827.23200000002
RR11,628,grid RR11,894283.02899999998,505482.08299999998
RR12,629,grid RR12,894351.96100000001,505399.47200000001
RR13,630,grid RR13,894438.59400000004,505309.19400000002
RR14,631,grid RR14,894527.93400000001,505222.29499999998
RR16,632,grid RR16,894701.81700000004,505028.07299999997
RR17,633,grid RR17,894779.52800000005,504930.58199999999
RR18,634,grid RR18,894866.30500000005,504837.82
RR19,635,grid RR19,894941.11300000001,504745.05900000001
RR2,636,grid RR2,893553.52300000004,506287.12800000003
RR20,637,grid RR20,895021.90500000003,504664.266
RR21,638,grid RR21,895102.69799999997,504571.50400000002
RR22,639,grid RR22,895186.48300000001,504469.766
RR23,640,grid RR23,895273.26,504377.00400000002
RR24,641,grid RR24,895358.73499999999,504310.22399999999
RR26,642,grid RR26,895509.652,504122.65700000001
RR27,986,grid RR27,895607.196,504019.875
RR28,987,grid RR28,895677.67500000005,503938.92700000003
RR3,643,grid RR3,893624.87800000003,506215.77299999999
RR4,644,grid RR4,893703.13899999997,506128.30599999998
RR5,645,grid RR5,893776.79599999997,506045.44099999999
RR6,646,grid RR6,893880.37600000005,505932.65399999998
RR7,647,grid RR7,893963.39300000004,505845.8
RR8,648,grid RR8,894021.70499999996,505769.07400000002
RR9,649,grid RR9,894115.23400000005,505671.47899999999
S13,650,grid S13,892179.09699999995,503277.97100000002
S14,651,grid S14,892275.39,503189.549
S15,652,grid S15,892364.56599999999,503104.391
S16,653,grid S16,892449.55500000005,502996.12
S17,654,grid S17,892523.73800000001,502904.47
S18,655,grid S18,892607.13199999998,502821.11300000001
S19,656,grid S19,892694.67299999995,502733.15
S20,657,grid S20,892773.00300000003,502636.89399999997
S21,658,grid S21,892843.49800000002,502558.60200000001
S22,659,grid S22,892939.33200000005,502461.42800000001
S23,660,grid S23,893018.12100000004,502373.92499999999
S24,661,grid S24,893101.05700000003,502281.815
S26,662,grid S26,893271.07400000002,502092.99200000003
S27,936,grid S27,893353.74899999995,501994.75699999998
S28,937,grid S28,893425.56099999999,501915.00099999999
SS10,663,grid SS10,894286.63699999999,505655.25400000002
SS11,664,grid SS11,894375,505554.32900000003
SS14,665,grid SS14,894626.47600000002,505275.03600000002
SS15,666,grid SS15,894661.41200000001,505201.13299999997
SS16,667,grid SS16,894778.41,505106.29599999997
SS17,668,grid SS17,894867.47499999998,505007.38
SS18,669,grid SS18,894956.54,504908.46399999998
SS19,670,grid SS19,895029.30700000003,504815.94500000001
SS20,671,grid SS20,895113.71299999999,504733.90500000003
SS21,672,grid SS21,895202.19799999997,504623.93099999998
SS22,673,grid SS22,895280.78399999999,504536.652
SS23,674,grid SS23,895354.13199999998,504455.19199999998
SS24,675,grid SS24,895422.81900000002,504390.60800000001
SS26,676,grid SS26,895610.84699999995,504170.08
SS27,988,grid SS27,895686.01500000001,504098.06400000001
SS28,989,grid SS28,895763.93900000001,504014.19300000003
SS4,677,grid SS4,893781.82200000004,506189.717
SS5,678,grid SS5,893872.04599999997,506112.91600000003
SS6,679,grid SS6,893950.63300000003,506025.63699999999
SS7,680,grid SS7,894052.23499999999,505911.03
SS7,681,grid SS7,864033.87899999996,505921.48100000003
SS8,682,grid SS8,894123.52300000004,505833.62300000002
SS9,683,grid SS9,894207.348,505740.52500000002
T13,684,grid T13,892262.45400000003,503361.36499999999
T14,685,grid T14,892349.995,503273.402
T15,686,grid T15,892449.272,503180.66100000002
T16,687,grid T16,892524.32499999995,503085.12300000002
T17,688,grid T17,892620.36,502978.46500000003
T18,689,grid T18,892700.74300000002,502896.34100000001
T19,690,grid T19,892776.50899999996,502790.745
T20,691,grid T20,892856.89199999999,502708.62
T21,692,grid T21,892937.27500000002,502626.49599999998
T22,693,grid T22,893016.95,502530.85800000001
T23,694,grid T23,893106.93599999999,502438.06699999998
T24,695,grid T24,893190.16700000002,502345.63099999999
T25,696,grid T25,893273.397,502253.19400000002
T26,697,grid T26,893349.826,502172.239
T27,938,grid T27,893441.61499999999,502073.87199999997
T28,939,grid T28,893512.21,501995.46799999999
TT10,698,grid TT10,894392.84600000002,505714.79599999997
TT11,699,grid TT11,894483.81499999994,505620.69900000002
TT14,700,grid TT14,894697.45900000003,505360.02100000001
TT16,701,grid TT16,894870.92799999996,505179.06400000001
TT17,702,grid TT17,894948.93500000006,505080.72700000001
TT18,703,grid TT18,895027.522,504993.44799999997
TT19,704,grid TT19,895111.34699999995,504900.35100000002
TT20,705,grid TT20,895197.48100000003,504819.72600000002
TT21,706,grid TT21,895275.91599999997,504722.16600000003
TT22,707,grid TT22,895362.82400000002,504621.05699999997
TT23,708,grid TT23,895447.61499999999,504540.86
TT24,709,grid TT24,895518.223,504463.50599999999
TT26,710,grid TT26,895710.24,504260.94199999998
TT27,990,grid TT27,895773.60800000001,504174.52600000001
TT28,991,grid TT28,895847.67700000003,504089.59100000001
TT5,711,grid TT5,893951.76800000004,506153.09
TT6,712,grid TT6,894037.33200000005,506093.16499999998
TT7,713,grid TT7,894126.397,505994.24900000001
TT8,714,grid TT8,894205.56299999997,505918.02799999999
TT9,715,grid TT9,894288.80900000001,505813.87199999997
U12,716,grid U12,892271.62800000003,503536.40899999999
U13,717,grid U13,892359.96,503439.26
U14,718,grid U14,892441.64500000002,503347.58600000001
U15,719,grid U15,892537.48,503250.41200000001
U18,720,grid U18,892782.13899999997,502978.69
U19,721,grid U19,892882.58799999999,502889.22600000002
U20,722,grid U20,892948.01,502794.47200000001
U21,723,grid U21,893030.946,502702.36300000001
U22,724,grid U22,893105.12899999996,502610.712
U23,725,grid U23,893192.67,502522.75
U24,726,grid U24,893267.31200000003,502439.85200000001
U25,727,grid U25,893366.83400000003,502329.321
U26,728,grid U26,893436.87100000004,502242.27600000001
U27,940,grid U27,893531.78099999996,502147.71399999998
U28,941,grid U28,893597.37300000002,502072.14899999998
UU10,729,grid UU10,894457.929,505824.967
UU11,730,grid UU11,894551.65399999998,505709.17499999999
UU12,731,grid UU12,894626.73899999994,505660.88699999999
UU13,732,grid UU13,894732.68,505566.63099999999
UU14,733,grid UU14,894804.28899999999,505451.99699999997
UU15,734,grid UU15,894854.94200000004,505360.63799999998
UU16,735,grid UU16,894960.30299999996,505255.32299999997
UU17,736,grid UU17,895028.41200000001,505179.68099999998
UU18,737,grid UU18,895117.47600000002,505080.76500000001
UU19,738,grid UU19,895196.06299999997,504993.48599999998
UU20,739,grid UU20,895279.88800000004,504900.38799999998
UU21,740,grid UU21,895357.89500000002,504802.05099999998
UU22,741,grid UU22,895447.53899999999,504714.19300000003
UU23,742,grid UU23,895542.42299999995,504620.51500000001
UU24,743,grid UU24,895620.43,504522.179
UU25,744,grid UU25,895711.23300000001,504456.435
UU26,745,grid UU26,895777.603,504347.62
UU27,992,grid UU27,895867.58299999998,504251.92099999997
UU28,993,grid UU28,895940.85199999996,504175.89299999998
UU6,746,grid UU6,894119.15,506131.01199999999
UU7,747,grid UU7,894222.17,506086.80499999999
UU8,748,grid UU8,894300.75600000005,505999.52600000001
UU9,749,grid UU9,894378.76300000004,505901.18900000001
V11,750,grid V11,892307.36199999996,503682.16899999999
V12,751,grid V12,892367.42500000005,503605.98700000002
V13,752,grid V13,892450.81900000002,503522.63
V14,753,grid V14,892533.75399999996,503430.52100000001
V15,754,grid V15,892616.69,503338.41200000001
V16,755,grid V16,892699.47699999996,503232.11599999998
V19,756,grid V19,892939.68,502970.43400000001
V20,757,grid V20,893026.76199999999,502873.71899999998
V21,758,grid V21,893113.84400000004,502777.005
V22,759,grid V22,893192.63300000003,502689.50099999999
V23,760,grid V23,893275.56799999997,502597.39199999999
V24,761,grid V24,893367.25600000005,502504.82400000002
V25,762,grid V25,893445.58600000001,502408.56800000003
V26,763,grid V26,893520.228,502325.67
V27,942,grid V27,893608.15399999998,502228.71899999998
V28,943,grid V28,893683.75199999998,502147.478
VV10,764,grid VV10,894571.98300000001,505885.51899999997
VV11,765,grid VV11,894639.51199999999,505798.81900000002
VV12,766,grid VV12,894707.62,505723.17700000003
VV13,767,grid VV13,894796.68500000006,505624.261
VV14,768,grid VV14,894875.272,505536.98
VV15,769,grid VV15,894970.15500000003,505443.304
VV16,770,grid VV16,895053.40099999995,505339.14899999998
VV17,771,grid VV17,895121.50899999996,505263.50699999998
VV18,772,grid VV18,895210.57400000002,505164.59100000001
VV19,773,grid VV19,895294.4,505071.49300000002
VV20,774,grid VV20,895384.62300000002,504994.69199999998
VV21,775,grid VV21,895467.29,504879.47899999999
VV22,776,grid VV22,895545.87600000005,504792.2
VV23,777,grid VV23,895618.64399999997,504699.68099999998
VV24,778,grid VV24,895703.049,504617.641
VV25,779,grid VV25,895792.11399999994,504518.72499999998
VV26,780,grid VV26,895881.75800000003,504430.86599999998
VV27,994,grid VV27,895964.61300000001,504339.28700000001
VV28,995,grid VV28,896035.09100000001,504258.34
VV8,781,grid VV8,894393.85400000005,506083.35100000002
VV9,782,grid VV9,894482.91899999999,505984.435
W11,783,grid W11,892376.14,503772.28
W12,784,grid W12,892446.63500000001,503693.98700000002
W13,785,grid W13,892534.17599999998,503606.02399999998
W14,786,grid W14,892625.40500000003,503504.70400000003
W16,787,grid W16,892809.29099999997,503316.00400000002
W17,788,grid W17,892878.81700000004,503232.52399999998
W18,789,grid W18,892957.147,503136.26799999998
W19,790,grid W19,893036.39399999997,503057.516
W20,791,grid W20,893123.01800000004,502952.049
W21,792,grid W21,893206.41200000001,502868.69199999998
W23,793,grid W23,893381.27399999998,502686.11099999998
W24,794,grid W24,893455.67700000003,502601.11700000003
W25,795,grid W25,893546.44700000004,502491.04499999998
W26,796,grid W26,893621.08900000004,502408.14600000001
W27,944,grid W27,893707.91700000002,502313.65100000001
W28,945,grid W28,893779.72900000005,502233.89500000002
WW10,797,grid WW10,894649.36399999994,505986.8
WW11,798,grid WW11,894737.84900000005,505876.826
WW12,799,grid WW12,894811.196,505795.36499999999
WW13,800,grid WW13,894895.60100000002,505713.32500000001
WW14,801,grid WW14,894974.18799999997,505626.04599999997
WW15,802,grid WW15,895058.01399999997,505532.94900000002
WW16,803,grid WW16,895141.26,505428.79300000001
WW17,804,grid WW17,895230.90399999998,505340.93400000001
WW18,805,grid WW18,895314.72900000005,505247.837
WW19,806,grid WW19,895387.49699999997,505155.31800000003
WW20,807,grid WW20,895477.14099999995,505067.46
WW21,808,grid WW21,895549.90899999999,504974.94199999998
WW22,809,grid WW22,895633.73499999999,504881.84399999998
WW23,810,grid WW23,895723.37899999996,504793.98499999999
WW24,811,grid WW24,895812.44400000002,504695.06900000002
WW25,812,grid WW25,895896.26899999997,504601.97100000002
WW26,813,grid WW26,895974.85600000003,504514.69199999998
WW27,996,grid WW27,896058.98400000005,504424.26
WW28,997,grid WW28,896130.79200000002,504344.50900000002
WW8,814,grid WW8,894479.97400000005,506139.82199999999
WW9,815,grid WW9,894554.48100000003,506080.47700000001
X11,816,grid X11,892484.70499999996,503856.76299999998
X12,817,grid X12,892547.49600000004,503776.46399999998
X13,818,grid X13,892637.245,503687.35
X14,819,grid X14,892717.973,503596.39199999999
X15,820,grid X15,892813.34900000005,503490.46600000001
X16,821,grid X16,892904.57799999998,503389.14600000001
X17,822,grid X17,892966.32,503311.31199999998
X18,823,grid X18,893040.96200000006,503228.41399999999
X19,824,grid X19,893132.19099999999,503127.09399999998
X20,825,grid X20,893215.12699999998,503034.98499999999
X24,826,grid X24,893543.18099999998,502679.90600000002
X25,827,grid X25,893630.26300000004,502583.19099999999
X26,828,grid X26,893709.05200000003,502495.68699999998
X27,946,grid X27,893801.05500000005,502395.065
X28,947,grid X28,893871.51599999995,502314.09299999999
XX10,829,grid XX10,894745.37199999997,506060.14500000002
XX11,830,grid XX11,894820.72,505959.44400000002
XX12,831,grid XX12,894903.17200000002,505873.64600000001
XX13,832,grid XX13,894980.72199999995,505781.74400000001
XX14,833,grid XX14,895069.18500000006,505700.51299999998
XX15,834,grid XX15,895145.37699999998,505615.89399999997
XX16,835,grid XX16,895232.99699999997,505518.58199999999
XX17,836,grid XX17,895316.80700000003,505425.50099999999
XX18,837,grid XX18,895396.80799999996,505336.65100000001
XX19,838,grid XX19,895472.57799999998,505243.99099999998
XX20,839,grid XX20,895556.38899999997,505150.91
XX21,840,grid XX21,895632.15899999999,505058.25099999999
XX22,841,grid XX22,895731.62899999996,504956.28600000002
XX27,998,grid XX27,896148.17200000002,504506.97200000001
XX28,999,grid XX28,896214.92799999996,504427.48599999998
XX9,842,grid XX9,894672.99,506140.533
Y10,843,grid Y10,892499.07400000002,504024.73700000002
Y11,844,grid Y11,892561.27599999995,503955.65500000003
Y12,845,grid Y12,892648.35800000001,503858.94
Y13,846,grid Y13,892723.45799999998,503784.79399999999
Y14,847,grid Y14,892815.14599999995,503692.22600000002
Y17,848,grid Y17,893063.03500000003,503398.39399999997
Y18,849,grid Y18,893145.97100000002,503306.28499999997
Y19,850,grid Y19,893220.15399999998,503214.63500000001
Y20,851,grid Y20,893298.94299999997,503127.13099999999
Y24,852,grid Y24,893639.43700000003,502758.23599999998
Y25,853,grid Y25,893726.06,502652.76899999997
Y26,854,grid Y26,893791.95,502570.32900000003
Y27,948,grid Y27,893893.65300000005,502472.92599999998
Y28,949,grid Y28,893955.34199999995,502396.25599999999
YY16,855,grid YY16,895298.94200000004,505581.30599999998
YY17,856,grid YY17,895417.09900000005,505508.58600000001
YY18,857,grid YY18,895495.10600000003,505410.24900000001
YY19,858,grid YY19,895573.69299999997,505322.97
YY20,859,grid YY20,895652.27899999998,505235.69099999999
YY27,1000,grid YY27,896242.27899999998,504586.89199999999
YY28,1001,grid YY28,896314.35100000002,504512.19400000002
Z10,860,grid Z10,892586.57799999998,504103.52500000002
Z11,861,grid Z11,892657.07299999997,504025.23300000001
Z12,862,grid Z12,892735.86100000003,503937.72899999999
Z13,863,grid Z13,892823.03700000001,503844.41200000001
Z14,864,grid Z14,892885.14500000002,503771.93199999997
Z16,865,grid Z16,893063.45700000005,503573.89799999999
Z19,866,grid Z19,893311.804,503288.81800000003
Z20,867,grid Z20,893390.59299999999,503201.31400000001
Z21,868,grid Z21,893486.42700000003,503104.141
Z22,869,grid Z22,893573.96799999999,503016.179
Z23,870,grid Z23,893644.005,502929.13400000002
Z24,871,grid Z24,893714.04099999997,502842.08899999998
Z25,872,grid Z25,893813.56400000001,502731.55800000002
Z26,873,grid Z26,893879.45400000003,502649.11800000002
Z27,950,grid Z27,893980.46200000006,502555.98499999999
Z28,951,grid Z28,894053.647,502477.42499999999
University Center,874,Dining Hall Offices,893600.03599999996,504546.26799999998
University Center,875,Registrar,893645.19299999997,504465.05
University Center,876,Faculty Club,893682.17299999995,504428.41700000002
University Center,877,Food Court,893741.54099999997,504436.81800000003
University Center,878,Book Store,893889.96,504561.56300000002
University Center,879,Post Office,893815.44099999999,504664.29599999997
University Center,880,1st Floor Lounge,893982.79299999995,504487.30900000001
University Center,881,ATMs,893977.70700000005,504530.68099999998
University Center,882,Convenient Store,894067.99899999995,504468.12400000001
University Center,883,Credit Union,894044.60699999996,504443.06599999999
University Center,884,Toppel,894116.56799999997,504431.93599999999
University Center,885,S.S. Caf,894038.22,504381.37099999998
University Center,886,Sabarro,893970.34400000004,504390.185
University Center,887,Pool Office,893997.27899999998,504362.49
University Center,888,WVUM,894080.06299999997,504317.14799999999
University Center,889,Patio,893849.723,504355.50400000002
University Center,890,Pool Area,893911.65599999996,504273.40600000002
University Center,891,ARC,893950.33700000006,504530.01299999998
University Center,892,Student Activities and Organizations,893994.26300000004,504525.60800000001
University Center,893,"Organizations Offices, West",893988.23199999996,504350.34700000001
University Center,894,"Organizations Offices, South",894111.06799999997,504347.06400000001
University Center,895,"Organizations Offices, East",894105.30900000001,504437.78200000001
University Center,896,Flamingo Ballroom,894062.38600000006,504401.13199999998
University Center,897,International Lounge,893975.39899999998,504486.64500000002
University Center,898,L.S. Copy Center,894030.95299999998,504302.9
University Center,899,Breezeway,893844.03200000001,504432.72
,Result,,,
,Address Lookup,,,
,1200 memorial dr,,,
,,,,TO BE DELETE
,,,,ii9
,,,,FID LOOKUP FROM GRID
,,,,350
,,,,cc11
,,,,FID LOOKUP FROM GRID
,,,,174
